CCSDS_OMM_VERS = 2.0
CREATION_DATE  = 
ORIGINATOR     = 

OBJECT_NAME    = STARLINK-36940
OBJECT_ID      = 2026-040N
CENTER_NAME    = EARTH
REF_FRAME      = TEME
TIME_SYSTEM    = UTC
MEAN_ELEMENT_THEORY = SGP/SGP4

EPOCH          = 2026-03-31T03:16:36.528096
MEAN_MOTION    = 15.75239100
ECCENTRICITY   = .00021507
INCLINATION    = 97.2857
RA_OF_ASC_NODE = 39.6813
ARG_OF_PERICENTER = 112.6232
MEAN_ANOMALY   = 247.5261

EPHEMERIS_TYPE = 0
CLASSIFICATION_TYPE = U
NORAD_CAT_ID   = 68027
ELEMENT_SET_NO = 999
REV_AT_EPOCH   = 473
BSTAR          = .11864536E-2
MEAN_MOTION_DOT = .181029E-2
MEAN_MOTION_DDOT = 0

CCSDS_OMM_VERS = 2.0
CREATION_DATE  = 
ORIGINATOR     = 

OBJECT_NAME    = STARLINK-36253
OBJECT_ID      = 2026-040P
CENTER_NAME    = EARTH
REF_FRAME      = TEME
TIME_SYSTEM    = UTC
MEAN_ELEMENT_THEORY = SGP/SGP4

EPOCH          = 2026-03-31T06:00:02.000160
MEAN_MOTION    = 15.33315541
ECCENTRICITY   = .00023924
INCLINATION    = 97.2858
RA_OF_ASC_NODE = 39.0576
ARG_OF_PERICENTER = 88.7223
MEAN_ANOMALY   = 258.7274

EPHEMERIS_TYPE = 0
CLASSIFICATION_TYPE = U
NORAD_CAT_ID   = 68028
ELEMENT_SET_NO = 999
REV_AT_EPOCH   = 599
BSTAR          = .40484682E-2
MEAN_MOTION_DOT = .132403E-2
MEAN_MOTION_DDOT = 0

CCSDS_OMM_VERS = 2.0
CREATION_DATE  = 
ORIGINATOR     = 

OBJECT_NAME    = STARLINK-36944
OBJECT_ID      = 2026-040Q
CENTER_NAME    = EARTH
REF_FRAME      = TEME
TIME_SYSTEM    = UTC
MEAN_ELEMENT_THEORY = SGP/SGP4

EPOCH          = 2026-03-29T08:46:30.637632
MEAN_MOTION    = 15.74430961
ECCENTRICITY   = .00019728
INCLINATION    = 97.2866
RA_OF_ASC_NODE = 37.7971
ARG_OF_PERICENTER = 82.1007
MEAN_ANOMALY   = 278.0482

EPHEMERIS_TYPE = 0
CLASSIFICATION_TYPE = U
NORAD_CAT_ID   = 68029
ELEMENT_SET_NO = 999
REV_AT_EPOCH   = 445
BSTAR          = -.50411052E-2
MEAN_MOTION_DOT = -.673213E-2
MEAN_MOTION_DDOT = 0

CCSDS_OMM_VERS = 2.0
CREATION_DATE  = 
ORIGINATOR     = 

OBJECT_NAME    = STARLINK-36942
OBJECT_ID      = 2026-040R
CENTER_NAME    = EARTH
REF_FRAME      = TEME
TIME_SYSTEM    = UTC
MEAN_ELEMENT_THEORY = SGP/SGP4

EPOCH          = 2026-03-29T02:39:25.305984
MEAN_MOTION    = 15.75277690
ECCENTRICITY   = .0003468
INCLINATION    = 97.2859
RA_OF_ASC_NODE = 37.5337
ARG_OF_PERICENTER = 121.0523
MEAN_ANOMALY   = 239.1083

EPHEMERIS_TYPE = 0
CLASSIFICATION_TYPE = U
NORAD_CAT_ID   = 68030
ELEMENT_SET_NO = 999
REV_AT_EPOCH   = 441
BSTAR          = .17986203E-2
MEAN_MOTION_DOT = .278157E-2
MEAN_MOTION_DDOT = 0

CCSDS_OMM_VERS = 2.0
CREATION_DATE  = 
ORIGINATOR     = 

OBJECT_NAME    = STARLINK-36913
OBJECT_ID      = 2026-040S
CENTER_NAME    = EARTH
REF_FRAME      = TEME
TIME_SYSTEM    = UTC
MEAN_ELEMENT_THEORY = SGP/SGP4

EPOCH          = 2026-03-31T06:00:02.000160
MEAN_MOTION    = 15.52778780
ECCENTRICITY   = .00015266
INCLINATION    = 97.2851
RA_OF_ASC_NODE = 39.6945
ARG_OF_PERICENTER = 115.0916
MEAN_ANOMALY   = 278.8942

EPHEMERIS_TYPE = 0
CLASSIFICATION_TYPE = U
NORAD_CAT_ID   = 68031
ELEMENT_SET_NO = 999
REV_AT_EPOCH   = 589
BSTAR          = -.33124809E-1
MEAN_MOTION_DOT = -.1816301E-1
MEAN_MOTION_DDOT = 0

CCSDS_OMM_VERS = 2.0
CREATION_DATE  = 
ORIGINATOR     = 

OBJECT_NAME    = STARLINK-36935
OBJECT_ID      = 2026-040T
CENTER_NAME    = EARTH
REF_FRAME      = TEME
TIME_SYSTEM    = UTC
MEAN_ELEMENT_THEORY = SGP/SGP4

EPOCH          = 2026-03-29T02:31:17.400000
MEAN_MOTION    = 15.75272592
ECCENTRICITY   = .00018932
INCLINATION    = 97.2868
RA_OF_ASC_NODE = 37.5430
ARG_OF_PERICENTER = 100.6895
MEAN_ANOMALY   = 259.4584

EPHEMERIS_TYPE = 0
CLASSIFICATION_TYPE = U
NORAD_CAT_ID   = 68032
ELEMENT_SET_NO = 999
REV_AT_EPOCH   = 441
BSTAR          = .18377909E-2
MEAN_MOTION_DOT = .284329E-2
MEAN_MOTION_DDOT = 0

CCSDS_OMM_VERS = 2.0
CREATION_DATE  = 
ORIGINATOR     = 

OBJECT_NAME    = STARLINK-36947
OBJECT_ID      = 2026-040U
CENTER_NAME    = EARTH
REF_FRAME      = TEME
TIME_SYSTEM    = UTC
MEAN_ELEMENT_THEORY = SGP/SGP4

EPOCH          = 2026-03-31T03:25:08.719392
MEAN_MOTION    = 15.73950568
ECCENTRICITY   = .00015585
INCLINATION    = 97.2872
RA_OF_ASC_NODE = 39.6695
ARG_OF_PERICENTER = 326.4554
MEAN_ANOMALY   = 33.6612

EPHEMERIS_TYPE = 0
CLASSIFICATION_TYPE = U
NORAD_CAT_ID   = 68033
ELEMENT_SET_NO = 999
REV_AT_EPOCH   = 473
BSTAR          = -.16316238E-2
MEAN_MOTION_DOT = -.224875E-2
MEAN_MOTION_DDOT = 0

CCSDS_OMM_VERS = 2.0
CREATION_DATE  = 
ORIGINATOR     = 

OBJECT_NAME    = STARLINK-36939
OBJECT_ID      = 2026-040V
CENTER_NAME    = EARTH
REF_FRAME      = TEME
TIME_SYSTEM    = UTC
MEAN_ELEMENT_THEORY = SGP/SGP4

EPOCH          = 2026-03-31T06:00:02.000160
MEAN_MOTION    = 15.54667798
ECCENTRICITY   = .00014737
INCLINATION    = 97.2856
RA_OF_ASC_NODE = 39.7181
ARG_OF_PERICENTER = 93.0587
MEAN_ANOMALY   = 355.5352

EPHEMERIS_TYPE = 0
CLASSIFICATION_TYPE = U
NORAD_CAT_ID   = 68034
ELEMENT_SET_NO = 999
REV_AT_EPOCH   = 589
BSTAR          = -.30729597E-1
MEAN_MOTION_DOT = -.1806485E-1
MEAN_MOTION_DDOT = 0

CCSDS_OMM_VERS = 2.0
CREATION_DATE  = 
ORIGINATOR     = 

OBJECT_NAME    = STARLINK-36943
OBJECT_ID      = 2026-040W
CENTER_NAME    = EARTH
REF_FRAME      = TEME
TIME_SYSTEM    = UTC
MEAN_ELEMENT_THEORY = SGP/SGP4

EPOCH          = 2026-03-30T16:00:01.999584
MEAN_MOTION    = 15.75172450
ECCENTRICITY   = .00014319
INCLINATION    = 97.2853
RA_OF_ASC_NODE = 39.1846
ARG_OF_PERICENTER = 92.0994
MEAN_ANOMALY   = 115.5040

EPHEMERIS_TYPE = 0
CLASSIFICATION_TYPE = U
NORAD_CAT_ID   = 68035
ELEMENT_SET_NO = 999
REV_AT_EPOCH   = 585
BSTAR          = .57735855E-4
MEAN_MOTION_DOT = .8484E-4
MEAN_MOTION_DDOT = 0

CCSDS_OMM_VERS = 2.0
CREATION_DATE  = 
ORIGINATOR     = 

OBJECT_NAME    = STARLINK-36906
OBJECT_ID      = 2026-040X
CENTER_NAME    = EARTH
REF_FRAME      = TEME
TIME_SYSTEM    = UTC
MEAN_ELEMENT_THEORY = SGP/SGP4

EPOCH          = 2026-03-31T06:00:02.000160
MEAN_MOTION    = 15.53245989
ECCENTRICITY   = .00013723
INCLINATION    = 97.2850
RA_OF_ASC_NODE = 39.7058
ARG_OF_PERICENTER = 99.0792
MEAN_ANOMALY   = 319.8653

EPHEMERIS_TYPE = 0
CLASSIFICATION_TYPE = U
NORAD_CAT_ID   = 68036
ELEMENT_SET_NO = 999
REV_AT_EPOCH   = 589
BSTAR          = -.32301587E-1
MEAN_MOTION_DOT = -.1803031E-1
MEAN_MOTION_DDOT = 0

CCSDS_OMM_VERS = 2.0
CREATION_DATE  = 
ORIGINATOR     = 

OBJECT_NAME    = STARLINK-36388
OBJECT_ID      = 2026-040Y
CENTER_NAME    = EARTH
REF_FRAME      = TEME
TIME_SYSTEM    = UTC
MEAN_ELEMENT_THEORY = SGP/SGP4

EPOCH          = 2026-03-30T02:55:59.420064
MEAN_MOTION    = 15.75226231
ECCENTRICITY   = .00024887
INCLINATION    = 97.2860
RA_OF_ASC_NODE = 38.6097
ARG_OF_PERICENTER = 99.3643
MEAN_ANOMALY   = 260.7904

EPHEMERIS_TYPE = 0
CLASSIFICATION_TYPE = U
NORAD_CAT_ID   = 68037
ELEMENT_SET_NO = 999
REV_AT_EPOCH   = 457
BSTAR          = .2219243E-2
MEAN_MOTION_DOT = .345166E-2
MEAN_MOTION_DDOT = 0

CCSDS_OMM_VERS = 2.0
CREATION_DATE  = 
ORIGINATOR     = 

OBJECT_NAME    = STARLINK-36895
OBJECT_ID      = 2026-040Z
CENTER_NAME    = EARTH
REF_FRAME      = TEME
TIME_SYSTEM    = UTC
MEAN_ELEMENT_THEORY = SGP/SGP4

EPOCH          = 2026-03-31T00:00:02.000160
MEAN_MOTION    = 15.74915468
ECCENTRICITY   = .00018875
INCLINATION    = 97.2859
RA_OF_ASC_NODE = 39.5237
ARG_OF_PERICENTER = 107.4165
MEAN_ANOMALY   = 175.0741

EPHEMERIS_TYPE = 0
CLASSIFICATION_TYPE = U
NORAD_CAT_ID   = 68038
ELEMENT_SET_NO = 999
REV_AT_EPOCH   = 585
BSTAR          = -.15439911E-1
MEAN_MOTION_DOT = -.1971476E-1
MEAN_MOTION_DDOT = 0

